     2.11           N: GPS NAV DATA                         RINEX VERSION / TYPE
teqc  2016Apr1      IGN                 20180626 01:53:04UTCPGM / RUN BY / DATE
    18                                                      LEAP SECONDS
    4.6566D-09  1.4901D-08 -5.9605D-08 -1.1921D-07          ION ALPHA
    8.1920D+04  9.8304D+04 -6.5536D+04 -5.2429D+05          ION BETA
   -5.587935447693D-09-1.154631945610D-14   319488     2007 DELTA-UTC: A0,A1,T,W
                                                            END OF HEADER
27 18  6 25  4  0  0.0 3.644144162540D-04-1.818989403550D-12 0.000000000000D+00
    9.200000000000D+01-1.076562500000D+02 4.014095774630D-09 1.827292189390D+00
   -5.615875124930D-06 5.997311440300D-03 5.833804607390D-06 5.153689626690D+03
    1.008000000000D+05-5.215406417850D-08 1.978860709180D+00 5.587935447690D-09
    9.774544624670D-01 2.760000000000D+02 4.445073584870D-01-7.977117993270D-09
   -2.428672592530D-10 1.000000000000D+00 2.007000000000D+03 0.000000000000D+00
    2.000000000000D+00 0.000000000000D+00 1.396983861920D-09 9.200000000000D+01
    1.008000000000D+05
28 18  6 25  4  0  0.0 7.263408042490D-04 2.955857780760D-12 0.000000000000D+00
    7.500000000000D+01 3.481250000000D+01 3.899448141950D-09 2.728448048250D+00
    1.804903149600D-06 1.946871192190D-02 1.652166247370D-06 5.153683044430D+03
    1.008000000000D+05 2.216547727580D-07 1.021708158610D+00-4.656612873080D-08
    9.855475652010D-01 3.574375000000D+02-1.518311217790D+00-7.716035689570D-09
   -2.892977646990D-11 1.000000000000D+00 2.007000000000D+03 0.000000000000D+00
    3.000000000000D+00 0.000000000000D+00-1.117587089540D-08 7.500000000000D+01
    1.008000000000D+05
20 18  6 25  4  0  0.0 5.112094804640D-04 6.821210263300D-13 0.000000000000D+00
    9.300000000000D+01 1.534375000000D+01 5.731667318380D-09-4.537088381770D-01
    7.282942533490D-07 3.941193106580D-03 5.703419446950D-06 5.153655834200D+03
    1.008000000000D+05-1.490116119380D-08-2.316187515030D+00-2.607703208920D-08
    9.283861654100D-01 2.532812500000D+02 2.035710661030D+00-8.637502643800D-09
    3.846588797290D-10 1.000000000000D+00 2.007000000000D+03 0.000000000000D+00
    2.000000000000D+00 0.000000000000D+00-8.381903171540D-09 9.300000000000D+01
    1.008000000000D+05
11 18  6 25  4  0  0.0-7.326616905630D-04 1.364242052660D-12 0.000000000000D+00
    1.500000000000D+01-6.890625000000D+01 5.549159716200D-09-1.019981173580D+00
   -3.522261977200D-06 1.691306452270D-02 9.927898645400D-06 5.153644201280D+03
    1.008000000000D+05-2.775341272350D-07 2.606334535490D+00 1.024454832080D-07
    9.059783478290D-01 1.653125000000D+02 1.773216575370D+00-8.715720187590D-09
    2.671539851790D-10 1.000000000000D+00 2.007000000000D+03 0.000000000000D+00
    2.000000000000D+00 0.000000000000D+00-1.210719347000D-08 1.500000000000D+01
    1.008000000000D+05
17 18  6 25  4  0  0.0-8.482206612830D-05 3.865352482530D-12 0.000000000000D+00
    9.400000000000D+01-1.017500000000D+02 3.781943247400D-09 1.755058073990D+00
   -5.351379513740D-06 1.236676168630D-02 6.292015314100D-06 5.153580551150D+03
    1.008000000000D+05-2.793967723850D-08 2.033095934880D+00-3.222376108170D-07
    9.827784616960D-01 2.690625000000D+02-1.778544040250D+00-7.802467861250D-09
   -1.067901625250D-10 1.000000000000D+00 2.007000000000D+03 0.000000000000D+00
    3.000000000000D+00 0.000000000000D+00-1.117587089540D-08 9.400000000000D+01
    1.008000000000D+05
24 18  6 25  4  0  0.0-5.167489871380D-05-5.684341886080D-13 0.000000000000D+00
    2.300000000000D+01 1.017812500000D+02 4.772698802060D-09-5.492331799380D-02
    5.226582288740D-06 6.979032768870D-03 9.408220648770D-06 5.153651159290D+03
    1.008000000000D+05 5.587935447690D-08-1.545269029510D-01 9.499490261080D-08
    9.417717107660D-01 1.848750000000D+02 5.391543663320D-01-8.242486189780D-09
   -1.642925577300D-10 1.000000000000D+00 2.007000000000D+03 0.000000000000D+00
    2.000000000000D+00 0.000000000000D+00 2.793967723850D-09 2.300000000000D+01
    1.008000000000D+05
16 18  6 25  4  0  0.0 2.020224928856D-05-1.364242052659D-12 0.000000000000D+00
    5.500000000000D+01 3.750000000000D+01 4.038739658289D-09 2.778315234633D+00
    1.773238182068D-06 9.997603367083D-03 1.689419150352D-06 5.153651752472D+03
    1.008000000000D+05-6.332993507385D-08 1.017483653501D+00-5.774199962616D-08
    9.866688875196D-01 3.625625000000D+02 5.226629069166D-01-8.026048602854D-09
    4.928776731906D-11 0.000000000000D+00 2.007000000000D+03 0.000000000000D+00
    2.000000000000D+00 0.000000000000D+00-1.071020960808D-08 5.500000000000D+01
    9.720000000000D+04 4.000000000000D+00
18 18  6 25  4  0  0.0 2.577481791377D-05 4.547473508865D-12 0.000000000000D+00
    6.000000000000D+01-3.090625000000D+01 4.678766317969D-09-6.069385716677D-01
   -1.505017280579D-06 1.468324393500D-02 1.050531864166D-05 5.153648788452D+03
    1.008000000000D+05-8.754432201385D-08 2.987243386929D+00 1.359730958939D-07
    9.503935354998D-01 1.793125000000D+02 1.314793315448D+00-8.223556829865D-09
    4.721625246072D-10 0.000000000000D+00 2.007000000000D+03 0.000000000000D+00
    2.000000000000D+00 0.000000000000D+00-6.984919309616D-09 6.000000000000D+01
    9.720000000000D+04 4.000000000000D+00
 1 18  6 25  4  0  0.0-5.948636680841D-05-3.637978807092D-12 0.000000000000D+00
    8.600000000000D+01-2.937500000000D+01 4.125528987699D-09-3.462041394663D-01
   -1.372769474983D-06 7.919976022094D-03 1.012161374092D-05 5.153671350479D+03
    1.008000000000D+05 1.043081283569D-07 3.034987765068D+00 7.264316082001D-08
    9.720138818340D-01 1.929062500000D+02 6.460987176793D-01-7.816039855147D-09
    4.503759028213D-10 0.000000000000D+00 2.007000000000D+03 0.000000000000D+00
    4.000000000000D+00 0.000000000000D+00 5.587935447693D-09 8.600000000000D+01
    9.759000000000D+04 4.000000000000D+00
10 18  6 25  4  0  0.0 1.886640675366D-04 4.547473508865D-13 0.000000000000D+00
    7.300000000000D+01 8.906250000000D+00 4.990207862188D-09-2.429529834732D+00
    3.818422555923D-07 3.590092761442D-03 5.707144737244D-06 5.153655992508D+03
    1.008000000000D+05 7.450580596924D-09-2.209171695749D+00-1.043081283569D-07
    9.610122887621D-01 2.717500000000D+02-2.750084093161D+00-8.142482024202D-09
    2.882262914962D-10 0.000000000000D+00 2.007000000000D+03 0.000000000000D+00
    2.000000000000D+00 0.000000000000D+00 1.862645149231D-09 7.300000000000D+01
    9.801000000000D+04 4.000000000000D+00
23 18  6 25  4  0  0.0-2.154204994440D-04 5.684341886081D-13 0.000000000000D+00
    6.300000000000D+01-2.265625000000D+01 5.208431237782D-09 4.902805613076D-01
   -9.313225746155D-07 1.261748408433D-02 8.091330528259D-06 5.153774417877D+03
    1.008000000000D+05-1.154839992523D-07-1.173582820344D+00 1.396983861923D-07
    9.431820749764D-01 2.140000000000D+02-2.348960771370D+00-8.416779164065D-09
   -6.103825677411D-10 0.000000000000D+00 2.007000000000D+03 0.000000000000D+00
    2.000000000000D+00 0.000000000000D+00-2.002343535423D-08 6.300000000000D+01
    9.720000000000D+04 4.000000000000D+00
22 18  6 25  4  0  0.0-4.370030947030D-04-1.239186531166D-11 0.000000000000D+00
    1.200000000000D+01 1.265625000000D+01 5.907388923603D-09 1.129197957502D+00
    5.848705768585D-07 7.331111701205D-03 5.381181836128D-06 5.153773424149D+03
    1.008000000000D+05-1.378357410431D-07-2.266391125110D+00-1.303851604462D-07
    9.250810721284D-01 2.603437500000D+02-1.520097851846D+00-8.712862925713D-09
    3.596578383355D-10 0.000000000000D+00 2.007000000000D+03 0.000000000000D+00
    2.000000000000D+00 0.000000000000D+00-1.769512891769D-08 1.200000000000D+01
    9.918000000000D+04 4.000000000000D+00
19 18  6 25  4  0  0.0-4.257052205503D-04 3.069544618484D-12 0.000000000000D+00
    4.400000000000D+01-9.234375000000D+01 3.904448350232D-09-1.626127026512D+00
   -4.561617970467D-06 9.908487787470D-03 6.556510925293D-06 5.153718898773D+03
    1.008000000000D+05 1.788139343262D-07 2.080045391131D+00 1.098960638046D-07
    9.803516268946D-01 2.555937500000D+02 1.214701278235D+00-7.778181135322D-09
   -8.750364487804D-11 1.000000000000D+00 2.007000000000D+03 0.000000000000D+00
    2.000000000000D+00 0.000000000000D+00-1.536682248116D-08 4.400000000000D+01
    9.915000000000D+04
 3 18  6 25  4  0  0.0 9.498884901404D-05 6.480149750132D-12 0.000000000000D+00
    7.800000000000D+01 8.125000000000D+00 5.040209944975D-09-1.245013621095D+00
    4.377216100693D-07 1.476941397414D-03 5.330890417099D-06 5.153724317551D+03
    1.008000000000D+05 9.313225746155D-09-2.205732739611D+00 2.980232238770D-08
    9.609227493981D-01 2.778750000000D+02 4.587846270212D-01-8.204984627687D-09
    3.246563803842D-10 1.000000000000D+00 2.007000000000D+03 0.000000000000D+00
    2.000000000000D+00 0.000000000000D+00 2.328306436539D-09 7.800000000000D+01
    9.712200000000D+04 4.000000000000D+00
26 18  6 25  4  0  0.0-1.046415418386D-04 1.227817847393D-11 0.000000000000D+00
    8.400000000000D+01 5.703125000000D+01 4.755912388555D-09-2.610212330484D+00
    2.950429916382D-06 2.787491888739D-03 1.655891537666D-06 5.153677442551D+03
    1.008000000000D+05-2.980232238770D-08 9.159672373235D-01 2.607703208923D-08
    9.554550755219D-01 3.459062500000D+02 1.225358820771D-01-8.466424089118D-09
    1.257195224370D-10 1.000000000000D+00 2.007000000000D+03 0.000000000000D+00
    2.800000000000D+00 0.000000000000D+00 7.450580596924D-09 8.400000000000D+01
    9.361800000000D+04 4.000000000000D+00
